{"type": "FeatureCollection", "features": [ {"type": "Feature", "properties": {"norad_id": 37084, "name": "COSMOS 2251 DEB", "group": "cosmos-2251-debris", "lat": -39.08950108338468, "lon": 145.71241664447427, "alt_km": 557.3506753015472, "timestamp": "2025-12-13T20:38:51.405513+00:00", "meta": {"OBJECT_NAME": "COSMOS 2251 DEB", "OBJECT_ID": "1993-036BFE", "EPOCH": "2025-12-08T19:15:18.077184", "MEAN_MOTION": 15.00891112, "ECCENTRICITY": 0.00979748, "INCLINATION": 74.0259, "RA_OF_ASC_NODE": 169.4673, "ARG_OF_PERICENTER": 250.8811, "MEAN_ANOMALY": 108.175, "EPHEMERIS_TYPE": 0, "CLASSIFICATION_TYPE": "U", "NORAD_CAT_ID": 37084, "ELEMENT_SET_NO": 999, "REV_AT_EPOCH": 66208, "BSTAR": 0.00080064992, "MEAN_MOTION_DOT": 0.00011267, "MEAN_MOTION_DDOT": 0}, "tle": {"line1": "1 37084U 93036BFE 25342.80229256  .00011267  00000+0  80065-3 0  9991", "line2": "2 37084  74.0259 169.4673 0097974 250.8811 108.1750 15.00891112662080"}}, "geometry": {"type": "Point", "coordinates": [145.71241664447427, -39.08950108338468]}}, {"type": "Feature", "properties": {"norad_id": 37085, "name": "COSMOS 2251 DEB", "group": "cosmos-2251-debris", "lat": 8.604887212968272, "lon": 31.10737824361817, "alt_km": 449.4110107716797, "timestamp": "2025-12-13T20:38:51.405523+00:00", "meta": {"OBJECT_NAME": "COSMOS 2251 DEB", "OBJECT_ID": "1993-036BFF", "EPOCH": "2025-12-12T22:06:23.478048", "MEAN_MOTION": 15.41572455, "ECCENTRICITY": 0.00213691, "INCLINATION": 73.9479, "RA_OF_ASC_NODE": 215.6494, "ARG_OF_PERICENTER": 54.1611, "MEAN_ANOMALY": 306.1578, "EPHEMERIS_TYPE": 0, "CLASSIFICATION_TYPE": "U", "NORAD_CAT_ID": 37085, "ELEMENT_SET_NO": 999, "REV_AT_EPOCH": 67140, "BSTAR": 0.0027639648, "MEAN_MOTION_DOT": 0.0011891, "MEAN_MOTION_DDOT": 0}, "tle": {"line1": "1 37085U 93036BFF 25346.92110507  .00118910  00000+0  27640-2 0  9999", "line2": "2 37085  73.9479 215.6494 0021369  54.1611 306.1578 15.41572455671401"}}, "geometry": {"type": "Point", "coordinates": [31.10737824361817, 8.604887212968272]}}, {"type": "Feature", "properties": {"norad_id": 37089, "name": "COSMOS 2251 DEB", "group": "cosmos-2251-debris", "lat": -42.66947247638337, "lon": 128.3316291730308, "alt_km": 690.9011628816124, "timestamp": "2025-12-13T20:38:51.405533+00:00", "meta": {"OBJECT_NAME": "COSMOS 2251 DEB", "OBJECT_ID": "1993-036BFK", "EPOCH": "2025-12-13T04:19:45.135264", "MEAN_MOTION": 14.52965066, "ECCENTRICITY": 0.01351497, "INCLINATION": 74.0367, "RA_OF_ASC_NODE": 144.9132, "ARG_OF_PERICENTER": 245.0229, "MEAN_ANOMALY": 113.6845, "EPHEMERIS_TYPE": 0, "CLASSIFICATION_TYPE": "U", "NORAD_CAT_ID": 37089, "ELEMENT_SET_NO": 999, "REV_AT_EPOCH": 66116, "BSTAR": 0.0037726946, "MEAN_MOTION_DOT": 0.00017561, "MEAN_MOTION_DDOT": 0}, "tle": {"line1": "1 37089U 93036BFK 25347.18038351  .00017561  00000+0  37727-2 0  9995", "line2": "2 37089  74.0367 144.9132 0135149 245.0229 113.6845 14.52965066661169"}}, "geometry": {"type": "Point", "coordinates": [128.3316291730308, -42.66947247638337]}}, {"type": "Feature", "properties": {"norad_id": 37094, "name": "COSMOS 2251 DEB", "group": "cosmos-2251-debris", "lat": 16.80557124634752, "lon": 124.04530096509528, "alt_km": 742.0978985963802, "timestamp": "2025-12-13T20:38:51.405543+00:00", "meta": {"OBJECT_NAME": "COSMOS 2251 DEB", "OBJECT_ID": "1993-036BFQ", "EPOCH": "2025-12-10T15:45:11.030688", "MEAN_MOTION": 14.37808892, "ECCENTRICITY": 0.0084108, "INCLINATION": 74.1091, "RA_OF_ASC_NODE": 124.9809, "ARG_OF_PERICENTER": 91.4784, "MEAN_ANOMALY": 269.6007, "EPHEMERIS_TYPE": 0, "CLASSIFICATION_TYPE": "U", "NORAD_CAT_ID": 37094, "ELEMENT_SET_NO": 999, "REV_AT_EPOCH": 84476, "BSTAR": 0.0015212, "MEAN_MOTION_DOT": 4.753e-05, "MEAN_MOTION_DDOT": 0}, "tle": {"line1": "1 37094U 93036BFQ 25344.65637767  .00004753  00000+0  15212-2 0  9990", "line2": "2 37094  74.1091 124.9809 0084108  91.4784 269.6007 14.37808892844763"}}, "geometry": {"type": "Point", "coordinates": [124.04530096509528, 16.80557124634752]}}, {"type": "Feature", "properties": {"norad_id": 37095, "name": "COSMOS 2251 DEB", "group": "cosmos-2251-debris", "lat": 12.933666896167857, "lon": 4.123399550064936, "alt_km": 853.3487183131983, "timestamp": "2025-12-13T20:38:51.405553+00:00", "meta": {"OBJECT_NAME": "COSMOS 2251 DEB", "OBJECT_ID": "1993-036BFR", "EPOCH": "2025-12-09T20:01:56.039232", "MEAN_MOTION": 14.03378058, "ECCENTRICITY": 0.01946745, "INCLINATION": 73.8479, "RA_OF_ASC_NODE": 195.0272, "ARG_OF_PERICENTER": 253.3329, "MEAN_ANOMALY": 104.6357, "EPHEMERIS_TYPE": 0, "CLASSIFICATION_TYPE": "U", "NORAD_CAT_ID": 37095, "ELEMENT_SET_NO": 999, "REV_AT_EPOCH": 62595, "BSTAR": 0.002528344, "MEAN_MOTION_DOT": 4.65e-05, "MEAN_MOTION_DDOT": 0}, "tle": {"line1": "1 37095U 93036BFR 25343.83467638  .00004650  00000+0  25283-2 0  9993", "line2": "2 37095  73.8479 195.0272 0194674 253.3329 104.6357 14.03378058625950"}}, "geometry": {"type": "Point", "coordinates": [4.123399550064936, 12.933666896167857]}}, {"type": "Feature", "properties": {"norad_id": 37108, "name": "COSMOS 2251 DEB", "group": "cosmos-2251-debris", "lat": 3.338556156316844, "lon": 79.44540645704694, "alt_km": 813.321890995052, "timestamp": "2025-12-13T20:38:51.405563+00:00", "meta": {"OBJECT_NAME": "COSMOS 2251 DEB", "OBJECT_ID": "1993-036BGE", "EPOCH": "2025-12-12T06:19:01.114176", "MEAN_MOTION": 14.41295875, "ECCENTRICITY": 0.00913497, "INCLINATION": 74.0444, "RA_OF_ASC_NODE": 81.4442, "ARG_OF_PERICENTER": 158.2355, "MEAN_ANOMALY": 202.2722, "EPHEMERIS_TYPE": 0, "CLASSIFICATION_TYPE": "U", "NORAD_CAT_ID": 37108, "ELEMENT_SET_NO": 999, "REV_AT_EPOCH": 85500, "BSTAR": 0.0021858638, "MEAN_MOTION_DOT": 7.41e-05, "MEAN_MOTION_DDOT": 0}, "tle": {"line1": "1 37108U 93036BGE 25346.26320734  .00007410  00000+0  21859-2 0  9995", "line2": "2 37108  74.0444  81.4442 0091349 158.2355 202.2722 14.41295875855003"}}, "geometry": {"type": "Point", "coordinates": [79.44540645704694, 3.338556156316844]}}, {"type": "Feature", "properties": {"norad_id": 37126, "name": "COSMOS 2251 DEB", "group": "cosmos-2251-debris", "lat": 29.890751638715386, "lon": 1.8622046346100833, "alt_km": 731.2993682834813, "timestamp": "2025-12-13T20:38:51.405573+00:00", "meta": {"OBJECT_NAME": "COSMOS 2251 DEB", "OBJECT_ID": "1993-036BGY", "EPOCH": "2025-12-10T07:44:48.551424", "MEAN_MOTION": 14.73059683, "ECCENTRICITY": 0.0123308, "INCLINATION": 73.9536, "RA_OF_ASC_NODE": 359.2652, "ARG_OF_PERICENTER": 237.9672, "MEAN_ANOMALY": 120.9475, "EPHEMERIS_TYPE": 0, "CLASSIFICATION_TYPE": "U", "NORAD_CAT_ID": 37126, "ELEMENT_SET_NO": 999, "REV_AT_EPOCH": 8063, "BSTAR": 0.00038210319, "MEAN_MOTION_DOT": 2.735e-05, "MEAN_MOTION_DDOT": 0}, "tle": {"line1": "1 37126U 93036BGY 25344.32278416  .00002735  00000+0  38210-3 0  9994", "line2": "2 37126  73.9536 359.2652 0123308 237.9672 120.9475 14.73059683 80630"}}, "geometry": {"type": "Point", "coordinates": [1.8622046346100833, 29.890751638715386]}}, {"type": "Feature", "properties": {"norad_id": 37132, "name": "COSMOS 2251 DEB", "group": "cosmos-2251-debris", "lat": 68.80211839170482, "lon": 4.135368835629982, "alt_km": 622.4037252462031, "timestamp": "2025-12-13T20:38:51.405582+00:00", "meta": {"OBJECT_NAME": "COSMOS 2251 DEB", "OBJECT_ID": "1993-036BHE", "EPOCH": "2025-12-07T11:27:27.762624", "MEAN_MOTION": 14.77705967, "ECCENTRICITY": 0.0039737, "INCLINATION": 74.0029, "RA_OF_ASC_NODE": 244.3909, "ARG_OF_PERICENTER": 41.7313, "MEAN_ANOMALY": 318.688, "EPHEMERIS_TYPE": 0, "CLASSIFICATION_TYPE": "U", "NORAD_CAT_ID": 37132, "ELEMENT_SET_NO": 999, "REV_AT_EPOCH": 62338, "BSTAR": 0.0017835716, "MEAN_MOTION_DOT": 0.00012942, "MEAN_MOTION_DDOT": 0}, "tle": {"line1": "1 37132U 93036BHE 25341.47740466  .00012942  00000+0  17836-2 0  9994", "line2": "2 37132  74.0029 244.3909 0039737  41.7313 318.6880 14.77705967623388"}}, "geometry": {"type": "Point", "coordinates": [4.135368835629982, 68.80211839170482]}}, {"type": "Feature", "properties": {"norad_id": 37270, "name": "COSMOS 2251 DEB", "group": "cosmos-2251-debris", "lat": 33.10370103670635, "lon": 143.23387647885215, "alt_km": 1309.259599705858, "timestamp": "2025-12-13T20:38:51.405592+00:00", "meta": {"OBJECT_NAME": "COSMOS 2251 DEB", "OBJECT_ID": "1993-036BHJ", "EPOCH": "2025-12-12T22:45:06.098400", "MEAN_MOTION": 13.59808663, "ECCENTRICITY": 0.03985351, "INCLINATION": 73.9378, "RA_OF_ASC_NODE": 335.5481, "ARG_OF_PERICENTER": 347.3958, "MEAN_ANOMALY": 11.7404, "EPHEMERIS_TYPE": 0, "CLASSIFICATION_TYPE": "U", "NORAD_CAT_ID": 37270, "ELEMENT_SET_NO": 999, "REV_AT_EPOCH": 77072, "BSTAR": 0.0064936549, "MEAN_MOTION_DOT": 8.148e-05, "MEAN_MOTION_DDOT": 0}, "tle": {"line1": "1 37270U 93036BHJ 25346.94798725  .00008148  00000+0  64937-2 0  9992", "line2": "2 37270  73.9378 335.5481 0398535 347.3958  11.7404 13.59808663770728"}}, "geometry": {"type": "Point", "coordinates": [143.23387647885215, 33.10370103670635]}}, {"type": "Feature", "properties": {"norad_id": 37278, "name": "COSMOS 2251 DEB", "group": "cosmos-2251-debris", "lat": 27.817790914819863, "lon": -3.883922759349371, "alt_km": 1004.2144392571581, "timestamp": "2025-12-13T20:38:51.405602+00:00", "meta": {"OBJECT_NAME": "COSMOS 2251 DEB", "OBJECT_ID": "1993-036BHS", "EPOCH": "2025-12-04T09:26:36.152736", "MEAN_MOTION": 14.15029915, "ECCENTRICITY": 0.029998, "INCLINATION": 73.7864, "RA_OF_ASC_NODE": 4.3592, "ARG_OF_PERICENTER": 188.2556, "MEAN_ANOMALY": 234.4903, "EPHEMERIS_TYPE": 0, "CLASSIFICATION_TYPE": "U", "NORAD_CAT_ID": 37278, "ELEMENT_SET_NO": 999, "REV_AT_EPOCH": 63711, "BSTAR": 0.0023061, "MEAN_MOTION_DOT": 6.884e-05, "MEAN_MOTION_DDOT": 0}, "tle": {"line1": "1 37278U 93036BHS 25338.39347399  .00006884  00000+0  23061-2 0  9995", "line2": "2 37278  73.7864   4.3592 0299980 188.2556 234.4903 14.15029915637119"}}, "geometry": {"type": "Point", "coordinates": [-3.883922759349371, 27.817790914819863]}}]}